{
  "type": "FeatureCollection",
  "features": [
    {
      "type": "Feature",
      "properties": {
        "norad_id": 67117,
        "name": "STARLINK-35674",
        "group": "last-30-days",
        "lat": -28.12093751607215,
        "lon": 89.15218276355289,
        "alt_km": 331.5889666353587,
        "timestamp": "2025-12-26T04:40:04.514988+00:00",
        "meta_object_name": "STARLINK-35674",
        "meta_object_id": "2025-299R",
        "meta_epoch": "2025-12-25T22:00:01.999584",
        "meta_mean_motion": 15.81324606,
        "meta_eccentricity": 0.00015231,
        "meta_inclination": 42.9969,
        "meta_ra_of_asc_node": 235.8523,
        "meta_arg_of_pericenter": 271.5974,
        "meta_mean_anomaly": 169.2192,
        "meta_ephemeris_type": 0,
        "meta_classification_type": "U",
        "meta_norad_cat_id": 67117,
        "meta_element_set_no": 999,
        "meta_rev_at_epoch": 272,
        "meta_bstar": -0.010114455,
        "meta_mean_motion_dot": -0.01812454,
        "meta_mean_motion_ddot": 0,
        "tle_line1": "1 67117U 25299R   25359.91668981 -.01812454  00000+0 -10114-1 0  9995",
        "tle_line2": "2 67117  42.9969 235.8523 0001523 271.5974 169.2192 15.81324606  2724"
      },
      "geometry": {
        "type": "Point",
        "coordinates": [
          89.15218276355289,
          -28.12093751607215
        ]
      }
    },
    {
      "type": "Feature",
      "properties": {
        "norad_id": 67118,
        "name": "STARLINK-35701",
        "group": "last-30-days",
        "lat": -29.09445737411571,
        "lon": 90.8201645037438,
        "alt_km": 331.71486503758297,
        "timestamp": "2025-12-26T04:40:04.514999+00:00",
        "meta_object_name": "STARLINK-35701",
        "meta_object_id": "2025-299S",
        "meta_epoch": "2025-12-25T22:00:01.999584",
        "meta_mean_motion": 15.81325022,
        "meta_eccentricity": 0.00016085,
        "meta_inclination": 42.9968,
        "meta_ra_of_asc_node": 235.8478,
        "meta_arg_of_pericenter": 278.7573,
        "meta_mean_anomaly": 163.823,
        "meta_ephemeris_type": 0,
        "meta_classification_type": "U",
        "meta_norad_cat_id": 67118,
        "meta_element_set_no": 999,
        "meta_rev_at_epoch": 287,
        "meta_bstar": -0.010083795,
        "meta_mean_motion_dot": -0.01807742,
        "meta_mean_motion_ddot": 0,
        "tle_line1": "1 67118U 25299S   25359.91668981 -.01807742  00000+0 -10084-1 0  9996",
        "tle_line2": "2 67118  42.9968 235.8478 0001608 278.7573 163.8230 15.81325022  2873"
      },
      "geometry": {
        "type": "Point",
        "coordinates": [
          90.8201645037438,
          -29.09445737411571
        ]
      }
    },
    {
      "type": "Feature",
      "properties": {
        "norad_id": 67119,
        "name": "STARLINK-36179",
        "group": "last-30-days",
        "lat": -30.661189329955523,
        "lon": 93.65527265986148,
        "alt_km": 331.6008798361936,
        "timestamp": "2025-12-26T04:40:04.515009+00:00",
        "meta_object_name": "STARLINK-36179",
        "meta_object_id": "2025-299T",
        "meta_epoch": "2025-12-25T22:00:01.999584",
        "meta_mean_motion": 15.81358608,
        "meta_eccentricity": 0.00016005,
        "meta_inclination": 42.9965,
        "meta_ra_of_asc_node": 235.84,
        "meta_arg_of_pericenter": 275.1107,
        "meta_mean_anomaly": 170.3582,
        "meta_ephemeris_type": 0,
        "meta_classification_type": "U",
        "meta_norad_cat_id": 67119,
        "meta_element_set_no": 999,
        "meta_rev_at_epoch": 292,
        "meta_bstar": -0.010069027,
        "meta_mean_motion_dot": -0.01807916,
        "meta_mean_motion_ddot": 0,
        "tle_line1": "1 67119U 25299T   25359.91668981 -.01807916  00000+0 -10069-1 0  9993",
        "tle_line2": "2 67119  42.9965 235.8400 0001600 275.1107 170.3582 15.81358608  2927"
      },
      "geometry": {
        "type": "Point",
        "coordinates": [
          93.65527265986148,
          -30.661189329955523
        ]
      }
    },
    {
      "type": "Feature",
      "properties": {
        "norad_id": 67120,
        "name": "STARLINK-36217",
        "group": "last-30-days",
        "lat": -29.9302195288679,
        "lon": 92.3076167226101,
        "alt_km": 331.62568991771786,
        "timestamp": "2025-12-26T04:40:04.515019+00:00",
        "meta_object_name": "STARLINK-36217",
        "meta_object_id": "2025-299U",
        "meta_epoch": "2025-12-25T22:00:01.999584",
        "meta_mean_motion": 15.81344346,
        "meta_eccentricity": 0.00015799,
        "meta_inclination": 42.9968,
        "meta_ra_of_asc_node": 235.8439,
        "meta_arg_of_pericenter": 274.3619,
        "meta_mean_anomaly": 169.7449,
        "meta_ephemeris_type": 0,
        "meta_classification_type": "U",
        "meta_norad_cat_id": 67120,
        "meta_element_set_no": 999,
        "meta_rev_at_epoch": 292,
        "meta_bstar": -0.010116295,
        "meta_mean_motion_dot": -0.01814271,
        "meta_mean_motion_ddot": 0,
        "tle_line1": "1 67120U 25299U   25359.91668981 -.01814271  00000+0 -10116-1 0  9990",
        "tle_line2": "2 67120  42.9968 235.8439 0001579 274.3619 169.7449 15.81344346  2926"
      },
      "geometry": {
        "type": "Point",
        "coordinates": [
          92.3076167226101,
          -29.9302195288679
        ]
      }
    },
    {
      "type": "Feature",
      "properties": {
        "norad_id": 67121,
        "name": "STARLINK-36124",
        "group": "last-30-days",
        "lat": -32.457514039250306,
        "lon": 97.18141298609457,
        "alt_km": 331.73224813344586,
        "timestamp": "2025-12-26T04:40:04.515028+00:00",
        "meta_object_name": "STARLINK-36124",
        "meta_object_id": "2025-299V",
        "meta_epoch": "2025-12-25T22:00:01.999584",
        "meta_mean_motion": 15.81374766,
        "meta_eccentricity": 0.00015257,
        "meta_inclination": 42.9966,
        "meta_ra_of_asc_node": 235.8316,
        "meta_arg_of_pericenter": 279.7333,
        "meta_mean_anomaly": 169.2316,
        "meta_ephemeris_type": 0,
        "meta_classification_type": "U",
        "meta_norad_cat_id": 67121,
        "meta_element_set_no": 999,
        "meta_rev_at_epoch": 292,
        "meta_bstar": -0.010094945,
        "meta_mean_motion_dot": -0.01813138,
        "meta_mean_motion_ddot": 0,
        "tle_line1": "1 67121U 25299V   25359.91668981 -.01813138  00000+0 -10095-1 0  9998",
        "tle_line2": "2 67121  42.9966 235.8316 0001525 279.7333 169.2316 15.81374766  2929"
      },
      "geometry": {
        "type": "Point",
        "coordinates": [
          97.18141298609457,
          -32.457514039250306
        ]
      }
    },
    {
      "type": "Feature",
      "properties": {
        "norad_id": 67122,
        "name": "STARLINK-36188",
        "group": "last-30-days",
        "lat": -33.21816414872785,
        "lon": 98.7810456567728,
        "alt_km": 331.5207836476711,
        "timestamp": "2025-12-26T04:40:04.515038+00:00",
        "meta_object_name": "STARLINK-36188",
        "meta_object_id": "2025-299W",
        "meta_epoch": "2025-12-25T22:00:01.999584",
        "meta_mean_motion": 15.81389853,
        "meta_eccentricity": 0.00015852,
        "meta_inclination": 42.9968,
        "meta_ra_of_asc_node": 235.8279,
        "meta_arg_of_pericenter": 270.0752,
        "meta_mean_anomaly": 180.4211,
        "meta_ephemeris_type": 0,
        "meta_classification_type": "U",
        "meta_norad_cat_id": 67122,
        "meta_element_set_no": 999,
        "meta_rev_at_epoch": 292,
        "meta_bstar": -0.010093525,
        "meta_mean_motion_dot": -0.01814097,
        "meta_mean_motion_ddot": 0,
        "tle_line1": "1 67122U 25299W   25359.91668981 -.01814097  00000+0 -10094-1 0  9993",
        "tle_line2": "2 67122  42.9968 235.8279 0001585 270.0752 180.4211 15.81389853  2927"
      },
      "geometry": {
        "type": "Point",
        "coordinates": [
          98.7810456567728,
          -33.21816414872785
        ]
      }
    },
    {
      "type": "Feature",
      "properties": {
        "norad_id": 67123,
        "name": "STARLINK-36151",
        "group": "last-30-days",
        "lat": -31.55992770207082,
        "lon": 95.37846675094029,
        "alt_km": 331.61519719440184,
        "timestamp": "2025-12-26T04:40:04.515050+00:00",
        "meta_object_name": "STARLINK-36151",
        "meta_object_id": "2025-299X",
        "meta_epoch": "2025-12-25T22:00:01.999584",
        "meta_mean_motion": 15.81367287,
        "meta_eccentricity": 0.00015098,
        "meta_inclination": 42.997,
        "meta_ra_of_asc_node": 235.8365,
        "meta_arg_of_pericenter": 273.0499,
        "meta_mean_anomaly": 174.1416,
        "meta_ephemeris_type": 0,
        "meta_classification_type": "U",
        "meta_norad_cat_id": 67123,
        "meta_element_set_no": 999,
        "meta_rev_at_epoch": 292,
        "meta_bstar": -0.01008317,
        "meta_mean_motion_dot": -0.01810709,
        "meta_mean_motion_ddot": 0,
        "tle_line1": "1 67123U 25299X   25359.91668981 -.01810709  00000+0 -10083-1 0  9998",
        "tle_line2": "2 67123  42.9970 235.8365 0001509 273.0499 174.1416 15.81367287  2928"
      },
      "geometry": {
        "type": "Point",
        "coordinates": [
          95.37846675094029,
          -31.55992770207082
        ]
      }
    }
  ]
}